{
  "links" : {
    "next" : "https://api.nasa.gov/neo/rest/v1/feed?start_date=2016-03-23&end_date=2016-03-23&detailed=true&api_key=t0TVs3DtDT2H8Oy2Zy8m2eVrNsAVKAexjcZXUckd",
    "prev" : "https://api.nasa.gov/neo/rest/v1/feed?start_date=2016-03-21&end_date=2016-03-21&detailed=true&api_key=t0TVs3DtDT2H8Oy2Zy8m2eVrNsAVKAexjcZXUckd",
    "self" : "https://api.nasa.gov/neo/rest/v1/feed?start_date=2016-03-22&end_date=2016-03-22&detailed=true&api_key=t0TVs3DtDT2H8Oy2Zy8m2eVrNsAVKAexjcZXUckd"
  },
  "element_count" : 10,
  "near_earth_objects" : {
    "2016-03-22" : [ {
      "links" : {
        "self" : "https://api.nasa.gov/neo/rest/v1/neo/2474163?api_key=t0TVs3DtDT2H8Oy2Zy8m2eVrNsAVKAexjcZXUckd"
      },
      "neo_reference_id" : "2474163",
      "name" : "474163 (1999 SO5)",
      "nasa_jpl_url" : "http://ssd.jpl.nasa.gov/sbdb.cgi?sstr=2474163",
      "absolute_magnitude_h" : 20.9,
      "estimated_diameter" : {
        "kilometers" : {
          "estimated_diameter_min" : 0.1756123185,
          "estimated_diameter_max" : 0.3926810818
        },
        "meters" : {
          "estimated_diameter_min" : 175.6123184804,
          "estimated_diameter_max" : 392.6810818086
        },
        "miles" : {
          "estimated_diameter_min" : 0.1091204019,
          "estimated_diameter_max" : 0.2440006365
        },
        "feet" : {
          "estimated_diameter_min" : 576.1559189633,
          "estimated_diameter_max" : 1288.3238004408
        }
      },
      "is_potentially_hazardous_asteroid" : true,
      "close_approach_data" : [ {
        "close_approach_date" : "2016-03-22",
        "epoch_date_close_approach" : 1458630000000,
        "relative_velocity" : {
          "kilometers_per_second" : "14.0278720984",
          "kilometers_per_hour" : "50500.3395541946",
          "miles_per_hour" : "31378.9470968828"
        },
        "miss_distance" : {
          "astronomical" : "0.3987344621",
          "lunar" : "155.1076965332",
          "kilometers" : "59649824",
          "miles" : "37064684"
        },
        "orbiting_body" : "Earth"
      } ],
      "orbital_data" : {
        "orbit_id" : "70",
        "orbit_determination_date" : "2017-04-06 09:19:09",
        "orbit_uncertainty" : "0",
        "minimum_orbit_intersection" : ".0157001",
        "jupiter_tisserand_invariant" : "5.679",
        "epoch_osculation" : "2458000.5",
        "eccentricity" : ".06527549485482351",
        "semi_major_axis" : "1.085932553907656",
        "inclination" : "13.36560209215347",
        "ascending_node_longitude" : "196.0871068104038",
        "orbital_period" : "413.3354987502864",
        "perihelion_distance" : "1.015047769072371",
        "perihelion_argument" : "359.6479864959731",
        "aphelion_distance" : "1.15681733874294",
        "perihelion_time" : "2457873.864962059794",
        "mean_anomaly" : "110.2944552217528",
        "mean_motion" : ".8709631790360483",
        "equinox" : "J2000"
      }
    } ]
  }
}